[{"OBJECT_NAME":"STARLINK-11470 [DTC]","OBJECT_ID":"2024-217F","EPOCH":"2026-03-09T10:29:52.348416","MEAN_MOTION":15.69751409,"ECCENTRICITY":0.00019125,"INCLINATION":53.1572,"RA_OF_ASC_NODE":72.5194,"ARG_OF_PERICENTER":50.1232,"MEAN_ANOMALY":309.9954,"EPHEMERIS_TYPE":0,"CLASSIFICATION_TYPE":"U","NORAD_CAT_ID":62062,"ELEMENT_SET_NO":999,"REV_AT_EPOCH":7507,"BSTAR":0.0014600113,"MEAN_MOTION_DOT":0.00180502,"MEAN_MOTION_DDOT":0},{"OBJECT_NAME":"FLOCK 4BE-16","OBJECT_ID":"2024-149R","EPOCH":"2026-03-09T18:09:47.863872","MEAN_MOTION":15.69331853,"ECCENTRICITY":0.0006629,"INCLINATION":97.3709,"RA_OF_ASC_NODE":154.3606,"ARG_OF_PERICENTER":231.2674,"MEAN_ANOMALY":128.7996,"EPHEMERIS_TYPE":0,"CLASSIFICATION_TYPE":"U","NORAD_CAT_ID":60483,"ELEMENT_SET_NO":999,"REV_AT_EPOCH":8717,"BSTAR":0.0016709449,"MEAN_MOTION_DOT":0.00199478,"MEAN_MOTION_DDOT":0}]
